NORAD_CAT_ID,OBJECT_NAME,OBJECT_TYPE,EPOCH,MEAN_MOTION,ECCENTRICITY,INCLINATION,RA_OF_ASC_NODE,ARG_OF_PERICENTER,MEAN_ANOMALY,BSTAR,MEAN_MOTION_DOT,MEAN_MOTION_DDOT,TLE_LINE0,TLE_LINE1,TLE_LINE2,SEMIMAJOR_AXIS,PERIOD,APOGEE,PERIGEE,DECAYED
53264.0,STARLINK-3950,PAYLOAD,2023-02-27 20:39:56,15.08848315,0.00016,53.2176,118.3788,81.7305,278.3868,0.00011467,1.538e-05,0.0,0 STARLINK-3950,1 53264U 22086Y   23058.86107183  .00001538  00000-0  11467-3 0  9999,2 53264  53.2176 118.3788 0001600  81.7305 278.3868 15.08848315 34128,6917.855,95.437,540.827,538.613,0.0
53264.0,STARLINK-3950,PAYLOAD,2023-02-28 04:36:52,15.08829652,0.0001155,53.2168,116.8926,92.0514,268.061,-0.00040373,-6.706e-05,0.0,0 STARLINK-3950,1 53264U 22086Y   23059.19227627 -.00006706  00000-0 -40373-3 0  9994,2 53264  53.2168 116.8926 0001155  92.0514 268.0610 15.08829652 33996,6917.912,95.438,540.576,538.978,0.0
53264.0,STARLINK-3950,PAYLOAD,2023-02-28 12:33:48,15.08842504,0.0001162,53.2171,115.4052,94.2699,265.8426,-1.6348e-06,-3.14e-06,0.0,0 STARLINK-3950,1 53264U 22086Y   23059.52347279 -.00000314  00000-0 -16348-5 0  9993,2 53264  53.2171 115.4052 0001162  94.2699 265.8426 15.08842504 34229,6917.873,95.437,540.542,538.934,0.0
53264.0,STARLINK-3950,PAYLOAD,2023-02-28 20:30:44,15.08835958,0.0001182,53.217,113.9193,80.5381,279.5745,-1.1354e-05,-4.68e-06,0.0,0 STARLINK-3950,1 53264U 22086Y   23059.85467755 -.00000468  00000-0 -11354-4 0  9992,2 53264  53.2170 113.9193 0001182  80.5381 279.5745 15.08835958 34271,6917.893,95.438,540.575,538.94,0.0
53264.0,STARLINK-3950,PAYLOAD,2023-03-01 04:27:40,15.08827268,0.000195,53.2172,112.4336,81.8921,278.2292,5.7488e-05,6.27e-06,0.0,0 STARLINK-3950,1 53264U 22086Y   23060.18588767  .00000627  00000-0  57488-4 0  9990,2 53264  53.2172 112.4336 0001950  81.8921 278.2292 15.08827268 34147,6917.919,95.438,541.133,538.435,0.0
53264.0,STARLINK-3950,PAYLOAD,2023-03-01 20:21:32,15.08839284,0.0001587,53.2174,109.459,76.1865,283.9303,0.00062518,9.676e-05,0.0,0 STARLINK-3950,1 53264U 22086Y   23060.84829173  .00009676  00000-0  62518-3 0  9994,2 53264  53.2174 109.4590 0001587  76.1865 283.9303 15.08839284 34425,6917.883,95.438,540.845,538.65,0.0
53264.0,STARLINK-3950,PAYLOAD,2023-03-02 02:43:04,15.0886436,0.0001412,53.216,108.2695,71.3882,288.7263,0.001781,0.00028189,0.0,0 STARLINK-3950,1 53264U 22086Y   23061.11324930  .00028189  00000-0  17810-2 0  9990,2 53264  53.2160 108.2695 0001412  71.3882 288.7263 15.08864360 34281,6917.806,95.436,540.648,538.694,0.0
53264.0,STARLINK-3950,PAYLOAD,2023-03-02 10:39:59,15.08881689,0.0001438,53.2164,106.783,70.7991,289.3157,0.0017406,0.00027554,0.0,0 STARLINK-3950,1 53264U 22086Y   23061.44444182  .00027554  00000-0  17406-2 0  9994,2 53264  53.2164 106.7830 0001438  70.7991 289.3157 15.08881689 34519,6917.753,95.435,540.613,538.623,0.0
53264.0,STARLINK-3950,PAYLOAD,2023-03-03 08:55:22,15.08874673,0.000142,53.2163,102.6198,85.0468,275.0686,0.0021117,0.00033512,0.0,0 STARLINK-3950,1 53264U 22086Y   23062.37179072  .00033512  00000-0  21117-2 0  9995,2 53264  53.2163 102.6198 0001420  85.0468 275.0686 15.08874673 34478,6917.774,95.435,540.622,538.657,0.0
53264.0,STARLINK-3950,PAYLOAD,2023-03-03 20:03:04,15.08868106,0.0001733,53.2164,100.5386,90.0619,270.0572,0.0020997,0.00033313,0.0,0 STARLINK-3950,1 53264U 22086Y   23062.83547004  .00033313  00000-0  20997-2 0  9994,2 53264  53.2164 100.5386 0001733  90.0619 270.0572 15.08868106 34727,6917.794,95.436,540.858,538.461,0.0
53264.0,STARLINK-3950,PAYLOAD,2023-03-04 05:35:22,15.08882813,0.000165,53.2165,98.7543,90.9951,269.123,0.0020539,0.0003259,0.0,0 STARLINK-3950,1 53264U 22086Y   23063.23290251  .00032590  00000-0  20539-2 0  9996,2 53264  53.2165  98.7543 0001650  90.9951 269.1230 15.08882813 34605,6917.75,95.435,540.756,538.473,0.0
53264.0,STARLINK-3950,PAYLOAD,2023-03-04 08:46:08,15.08879412,0.000173,53.216,98.1615,75.886,284.2324,0.0013536,0.00021344,0.0,0 STARLINK-3950,1 53264U 22086Y   23063.36538002  .00021344  00000-0  13536-2 0  9993,2 53264  53.2160  98.1615 0001730  75.8860 284.2324 15.08879412 34629,6917.76,95.435,540.822,538.428,0.0
53264.0,STARLINK-3950,PAYLOAD,2023-03-05 02:15:23,15.08854316,0.0001856,53.2166,94.887,121.8641,238.2532,0.00055607,8.576e-05,0.0,0 STARLINK-3950,1 53264U 22086Y   23064.09401922  .00008576  00000-0  55607-3 0  9992,2 53264  53.2166  94.8870 0001856 121.8641 238.2532 15.08854316 34737,6917.837,95.437,540.986,538.418,0.0
53264.0,STARLINK-3950,PAYLOAD,2023-03-05 11:47:42,15.08822896,0.0001313,53.2172,93.1022,117.138,242.9746,0.0012331,0.00019382,0.0,0 STARLINK-3950,1 53264U 22086Y   23064.49146775  .00019382  00000-0  12331-2 0  9991,2 53264  53.2172  93.1022 0001313 117.1380 242.9746 15.08822896 34794,6917.933,95.439,540.706,538.889,0.0
53264.0,STARLINK-3950,PAYLOAD,2023-03-06 13:13:52,15.08859256,0.0001741,53.2185,88.3431,125.6719,234.4435,0.0010984,0.00017245,0.0,0 STARLINK-3950,1 53264U 22086Y   23065.55130652  .00017245  00000-0  10984-2 0  9994,2 53264  53.2185  88.3431 0001741 125.6719 234.4435 15.08859256 34952,6917.822,95.436,540.891,538.482,0.0
53264.0,STARLINK-3950,PAYLOAD,2023-03-07 00:21:35,15.08829196,0.0001885,53.2175,86.2618,115.6276,244.4911,-4.0962e-06,-3.53e-06,0.0,0 STARLINK-3950,1 53264U 22086Y   23066.01499736 -.00000353  00000-0 -40962-5 0  9993,2 53264  53.2175  86.2618 0001885 115.6276 244.4911 15.08829196 35020,6917.913,95.438,541.082,538.474,0.0
53264.0,STARLINK-3950,PAYLOAD,2023-03-07 17:50:50,15.08841087,0.0001204,53.218,82.9937,98.5299,261.583,0.0011308,0.00017755,0.0,0 STARLINK-3950,1 53264U 22086Y   23066.74364424  .00017755  00000-0  11308-2 0  9999,2 53264  53.2180  82.9937 0001204  98.5299 261.5830 15.08841087 35317,6917.877,95.437,540.575,538.909,0.0
53264.0,STARLINK-3950,PAYLOAD,2023-03-08 01:47:46,15.08841704,0.0001366,53.2181,81.5074,102.8447,257.2698,0.00095409,0.0001493,0.0,0 STARLINK-3950,1 53264U 22086Y   23067.07484658  .00014930  00000-0  95409-3 0  9995,2 53264  53.2181  81.5074 0001366 102.8447 257.2698 15.08841704 35183,6917.875,95.437,540.685,538.795,0.0
53264.0,STARLINK-3950,PAYLOAD,2023-03-08 17:41:37,15.08852153,0.0001212,53.2173,78.5337,102.1639,257.9489,0.0007099,0.00011032,0.0,0 STARLINK-3950,1 53264U 22086Y   23067.73724347  .00011032  00000-0  70990-3 0  9998,2 53264  53.2173  78.5337 0001212 102.1639 257.9489 15.08852153 35464,6917.843,95.437,540.547,538.87,0.0
53264.0,STARLINK-3950,PAYLOAD,2023-03-09 06:24:42,15.0885148,0.0001329,53.2178,76.1543,97.663,262.4513,0.00035202,5.321e-05,0.0,0 STARLINK-3950,1 53264U 22086Y   23068.26716153  .00005321  00000-0  35202-3 0  9994,2 53264  53.2178  76.1543 0001329  97.6630 262.4513 15.08851480 35360,6917.845,95.437,540.63,538.791,0.0
53264.0,STARLINK-3950,PAYLOAD,2023-03-09 17:32:24,15.0885136,0.0001354,53.2178,74.0734,85.1107,275.0039,0.00028795,4.299e-05,0.0,0 STARLINK-3950,1 53264U 22086Y   23068.73084003  .00004299  00000-0  28795-3 0  9990,2 53264  53.2178  74.0734 0001354  85.1107 275.0039 15.08851360 35616,6917.846,95.437,540.647,538.774,0.0
53264.0,STARLINK-3950,PAYLOAD,2023-03-10 06:15:29,15.0884817,8.93e-05,53.2173,71.6943,94.9277,265.1817,0.00017262,2.461e-05,0.0,0 STARLINK-3950,1 53264U 22086Y   23069.26075782  .00002461  00000-0  17262-3 0  9999,2 53264  53.2173  71.6943 0000893  94.9277 265.1817 15.08848170 35517,6917.855,95.437,540.338,539.103,0.0
53264.0,STARLINK-3950,PAYLOAD,2023-03-10 09:26:15,15.08861518,0.0001183,53.2157,71.0977,94.6545,265.4582,0.00063188,9.789e-05,0.0,0 STARLINK-3950,1 53264U 22086Y   23069.39323412  .00009789  00000-0  63188-3 0  9997,2 53264  53.2157  71.0977 0001183  94.6545 265.4582 15.08861518 35533,6917.815,95.436,540.498,538.861,0.0
53264.0,STARLINK-3950,PAYLOAD,2023-03-10 17:23:11,15.0883313,0.0001617,53.2179,69.6123,76.916,283.2012,-5.3109e-05,-1.133e-05,0.0,0 STARLINK-3950,1 53264U 22086Y   23069.72444270 -.00001133  00000-0 -53109-4 0  9990,2 53264  53.2179  69.6123 0001617  76.9160 283.2012 15.08833130 35581,6917.901,95.438,540.885,538.648,0.0
53264.0,STARLINK-3950,PAYLOAD,2023-03-11 09:17:03,15.08838083,0.0001501,53.2179,66.6362,91.9931,268.1233,0.00052485,8.074e-05,0.0,0 STARLINK-3950,1 53264U 22086Y   23070.38684669  .00008074  00000-0  52485-3 0  9996,2 53264  53.2179  66.6362 0001501  91.9931 268.1233 15.08838083 35868,6917.886,95.438,540.79,538.713,0.0
53264.0,STARLINK-3950,PAYLOAD,2023-03-11 23:35:32,15.08838049,0.0001507,53.217,63.9603,86.3082,273.8082,0.00055862,8.613e-05,0.0,0 STARLINK-3950,1 53264U 22086Y   23070.98301083  .00008613  00000-0  55862-3 0  9999,2 53264  53.2170  63.9603 0001507  86.3082 273.8082 15.08838049 35775,6917.886,95.438,540.794,538.709,0.0
53264.0,STARLINK-3950,PAYLOAD,2023-03-12 09:07:50,15.08853808,0.000143,53.2168,62.1767,82.9363,277.1792,0.00081368,0.0001269,0.0,0 STARLINK-3950,1 53264U 22086Y   23071.38044718  .00012690  00000-0  81368-3 0  9993,2 53264  53.2168  62.1767 0001430  82.9363 277.1792 15.08853808 36016,6917.838,95.437,540.692,538.714,0.0
53264.0,STARLINK-3950,PAYLOAD,2023-03-12 23:26:19,15.0884097,0.0001626,53.2171,59.5002,92.7606,267.3572,0.00022961,3.368e-05,0.0,0 STARLINK-3950,1 53264U 22086Y   23071.97661122  .00003368  00000-0  22961-3 0  9998,2 53264  53.2171  59.5002 0001626  92.7606 267.3572 15.08840970 35920,6917.877,95.437,540.867,538.618,0.0
53264.0,STARLINK-3950,PAYLOAD,2023-03-13 08:58:38,15.08841708,0.0001651,53.2181,57.7163,88.6951,271.4231,0.00036182,5.475e-05,0.0,0 STARLINK-3950,1 53264U 22086Y   23072.37405229  .00005475  00000-0  36182-3 0  9998,2 53264  53.2181  57.7163 0001651  88.6951 271.4231 15.08841708 36169,6917.875,95.437,540.882,538.598,0.0
53264.0,STARLINK-3950,PAYLOAD,2023-03-14 05:38:38,15.08849088,0.0001029,53.2184,53.8506,104.4646,255.646,0.00061289,9.482e-05,0.0,0 STARLINK-3950,1 53264U 22086Y   23073.23516956  .00009482  00000-0  61289-3 0  9992,2 53264  53.2184  53.8506 0001029 104.4646 255.6460 15.08849088 36119,6917.853,95.437,540.429,539.006,0.0
